{
"type": "FeatureCollection",
"name": "terrassa_distritos",
"crs": { "type": "name", "properties": { "name": "urn:ogc:def:crs:OGC:1.3:CRS84" } },
"features": [
{ "type": "Feature", "properties": { "id": "0827901", "name": "Terrassa distrito 01", "population": 35963.0, "census_sections": "0827901001; 0827901002; 0827901004; 0827901005; 0827901006; 0827901007; 0827901008; 0827901009; 0827901010; 0827901011; 0827901012; 0827901013; 0827901014; 0827901015; 0827901016; 0827901017; 0827901018; 0827901019; 0827901020; 0827901021; 0827901022; 0827901023; 0827901024", "census_districts": "0827901", "municipalities": "08279", "municipalities_mitma": "08279", "luas_mitma": "GAU Barcelona", "district_ids_in_v1": "0827901" }, "geometry": { "type": "MultiPolygon", "coordinates": [ [ [ [ 2.012113733229603, 41.557084956210076 ], [ 2.011348742532052, 41.556947781335147 ], [ 2.010682330579504, 41.556856499402357 ], [ 2.008147796571883, 41.557064390845269 ], [ 2.007527953604533, 41.556991449314772 ], [ 2.007482367558584, 41.556860463669643 ], [ 2.007413905035485, 41.556949963778997 ], [ 2.007653615610904, 41.560730509932888 ], [ 2.007655928310246, 41.560753034068277 ], [ 2.007942512023985, 41.563723374666381 ], [ 2.007944104592141, 41.56374139260884 ], [ 2.007839394419029, 41.564284672668435 ], [ 2.007063501955999, 41.565370246563283 ], [ 2.00533342440037, 41.567794547959302 ], [ 2.004298467113976, 41.569244763095128 ], [ 2.006291361327502, 41.569901485484742 ], [ 2.007436717123714, 41.570127573295707 ], [ 2.008864777318357, 41.570262442155503 ], [ 2.009909564867921, 41.570315474201109 ], [ 2.012282807355545, 41.570173757743945 ], [ 2.014976889494786, 41.570057218012465 ], [ 2.015635926310549, 41.569950286568975 ], [ 2.016935920739006, 41.569745210640484 ], [ 2.017069700819715, 41.5697238495476 ], [ 2.017575427274577, 41.569642606631433 ], [ 2.018736429223322, 41.569503881966128 ], [ 2.02008879803962, 41.569378708258661 ], [ 2.020255009392363, 41.569368207844761 ], [ 2.022166901444351, 41.569195319381997 ], [ 2.02626571235487, 41.568779712940696 ], [ 2.027128711132107, 41.564670782706266 ], [ 2.027376184398948, 41.563537956118232 ], [ 2.027605520406814, 41.562490575748193 ], [ 2.027840467636782, 41.561416214888816 ], [ 2.028199899896051, 41.559888030722583 ], [ 2.027649102791799, 41.558834049671376 ], [ 2.026508993871824, 41.558914476036776 ], [ 2.025304676434395, 41.558931289578723 ], [ 2.024506915382263, 41.558748912825891 ], [ 2.022086341618811, 41.558007779455139 ], [ 2.021688900090784, 41.557599094073602 ], [ 2.021540270703264, 41.557566326816044 ], [ 2.02012875290736, 41.557257057500166 ], [ 2.019964416600138, 41.55729620904409 ], [ 2.017706873062648, 41.55811912775021 ], [ 2.015063649721006, 41.557632634007739 ], [ 2.015043474284217, 41.557627966604521 ], [ 2.012113733229603, 41.557084956210076 ] ] ] ] } },
{ "type": "Feature", "properties": { "id": "0827902", "name": "Terrassa distrito 02", "population": 23246.0, "census_sections": "0827902001; 0827902002; 0827902003; 0827902004; 0827902005; 0827902006; 0827902008; 0827902009; 0827902011; 0827902012; 0827902014; 0827902015; 0827902016; 0827902017", "census_districts": "0827902", "municipalities": "08279", "municipalities_mitma": "08279", "luas_mitma": "GAU Barcelona", "district_ids_in_v1": "0827902" }, "geometry": { "type": "MultiPolygon", "coordinates": [ [ [ [ 2.043599457247248, 41.567099628888116 ], [ 2.044873708083212, 41.566963107974402 ], [ 2.064374913935432, 41.565191483279875 ], [ 2.064259888206561, 41.565006094160559 ], [ 2.063381524199905, 41.56359078394614 ], [ 2.067832888498168, 41.562575438176914 ], [ 2.068174385267043, 41.561721918400295 ], [ 2.06917368580248, 41.560707125211039 ], [ 2.067710236703584, 41.559933361813307 ], [ 2.066778269365299, 41.560433176672021 ], [ 2.065199417854442, 41.559405682056919 ], [ 2.065603716110557, 41.559055808763212 ], [ 2.064157240201859, 41.557876179074192 ], [ 2.067296236727487, 41.556178857530838 ], [ 2.065358223429302, 41.555310702408704 ], [ 2.06530586276946, 41.554331123119645 ], [ 2.066239744194911, 41.553589233192383 ], [ 2.06318874692882, 41.553625571574166 ], [ 2.062572596637128, 41.553358558118383 ], [ 2.062564389065851, 41.5533549905388 ], [ 2.061206745607639, 41.553528314762218 ], [ 2.059650755795744, 41.553357994643413 ], [ 2.057987514834748, 41.553425426889731 ], [ 2.056370434025669, 41.553876032962819 ], [ 2.053146578505809, 41.554083756422038 ], [ 2.051994634326944, 41.554700271110015 ], [ 2.050268522561172, 41.55583445394111 ], [ 2.040846924861035, 41.556999250759702 ], [ 2.039142747976745, 41.557241734888741 ], [ 2.033693865738686, 41.557975219644369 ], [ 2.030238122544235, 41.558392008742686 ], [ 2.029340562016852, 41.558668182877277 ], [ 2.028048998170548, 41.558805896278535 ], [ 2.027649102791799, 41.558834049671376 ], [ 2.028199899896051, 41.559888030722583 ], [ 2.027840467636782, 41.561416214888816 ], [ 2.027605520406814, 41.562490575748193 ], [ 2.027376184398948, 41.563537956118232 ], [ 2.027128711132107, 41.564670782706266 ], [ 2.02626571235487, 41.568779712940696 ], [ 2.028223670836225, 41.568584603857516 ], [ 2.030260122334889, 41.568399131698364 ], [ 2.033852666471374, 41.568073551406727 ], [ 2.033883445994059, 41.568069305903158 ], [ 2.037611808709338, 41.567731252944974 ], [ 2.038806919132591, 41.567625545481718 ], [ 2.039099187962119, 41.567590655389175 ], [ 2.043599457247248, 41.567099628888116 ] ] ] ] } },
{ "type": "Feature", "properties": { "id": "0827903", "name": "Terrassa distrito 03", "population": 25815.0, "census_sections": "0827903001; 0827903002; 0827903003; 0827903004; 0827903005; 0827903006; 0827903007; 0827903008; 0827903014; 0827903015; 0827903016; 0827903017; 0827903018; 0827903019; 0827903020", "census_districts": "0827903", "municipalities": "08279", "municipalities_mitma": "08279", "luas_mitma": "GAU Barcelona", "district_ids_in_v1": "0827903_AD" }, "geometry": { "type": "MultiPolygon", "coordinates": [ [ [ [ 2.029340562016852, 41.558668182877277 ], [ 2.030238122544235, 41.558392008742686 ], [ 2.033693865738686, 41.557975219644369 ], [ 2.039142747976745, 41.557241734888741 ], [ 2.040846924861035, 41.556999250759702 ], [ 2.050268522561172, 41.55583445394111 ], [ 2.051994634326944, 41.554700271110015 ], [ 2.053146578505809, 41.554083756422038 ], [ 2.056370434025669, 41.553876032962819 ], [ 2.057987514834748, 41.553425426889731 ], [ 2.059650755795744, 41.553357994643413 ], [ 2.061206745607639, 41.553528314762218 ], [ 2.062564389065851, 41.5533549905388 ], [ 2.060924486821298, 41.5528159254185 ], [ 2.062462855029871, 41.549779953079721 ], [ 2.063764275591718, 41.548134842001289 ], [ 2.063734453954876, 41.547956311012967 ], [ 2.063313629139652, 41.547765266060466 ], [ 2.065754484814635, 41.544595314846816 ], [ 2.066177374707231, 41.543800075886075 ], [ 2.066141140979975, 41.543499152026037 ], [ 2.065945989331986, 41.543233831542828 ], [ 2.066259053850376, 41.543089626274472 ], [ 2.060682633654868, 41.54262085507176 ], [ 2.058218514437997, 41.542488114361298 ], [ 2.05390051006566, 41.542389643288416 ], [ 2.051746563855601, 41.542466491150819 ], [ 2.048921713508608, 41.542690898052193 ], [ 2.045884301203234, 41.543075538284931 ], [ 2.044045966057506, 41.54339803985998 ], [ 2.04000535640691, 41.544476802104349 ], [ 2.040455029107635, 41.542571014245326 ], [ 2.040666113926312, 41.541041570664916 ], [ 2.040252021897614, 41.539678034397944 ], [ 2.039928816618019, 41.539089853428493 ], [ 2.039265624682998, 41.537877375733771 ], [ 2.038342722891492, 41.536676190433425 ], [ 2.037338433405923, 41.535658991796438 ], [ 2.036774545536984, 41.53508685120169 ], [ 2.034698826749592, 41.533547228791697 ], [ 2.034331694998613, 41.533926932279904 ], [ 2.033393642844506, 41.533653383936695 ], [ 2.031714753313088, 41.532062989501668 ], [ 2.030870896610772, 41.531452414322182 ], [ 2.024383669825954, 41.527812729136961 ], [ 2.024233482778294, 41.528005822552778 ], [ 2.024017308601295, 41.528079608042944 ], [ 2.023448505825424, 41.528102755690995 ], [ 2.023107397467975, 41.529661887002355 ], [ 2.022636538564996, 41.530882872429487 ], [ 2.021207287800221, 41.533032469943535 ], [ 2.020800363270631, 41.533934225257937 ], [ 2.020635375443051, 41.534464233949898 ], [ 2.020313690574211, 41.536668236160274 ], [ 2.020065517297218, 41.537472301003525 ], [ 2.019277672426691, 41.538789645443082 ], [ 2.018646919777239, 41.539473287687848 ], [ 2.017918149547175, 41.540097572686328 ], [ 2.017191874979493, 41.540559776998172 ], [ 2.01636215086947, 41.541295759510213 ], [ 2.015600778744917, 41.542383611117742 ], [ 2.015069731176063, 41.543432935659624 ], [ 2.014405298811595, 41.544454058816719 ], [ 2.012067834962711, 41.547131660228949 ], [ 2.010970928431066, 41.548225612400401 ], [ 2.010278095058356, 41.549160921025397 ], [ 2.009189762851034, 41.55062422947956 ], [ 2.007661046209862, 41.555318012687479 ], [ 2.007321957823074, 41.556399718491939 ], [ 2.007482367558584, 41.556860463669643 ], [ 2.007527953604533, 41.556991449314772 ], [ 2.008147796571883, 41.557064390845269 ], [ 2.010682330579504, 41.556856499402357 ], [ 2.011348742532052, 41.556947781335147 ], [ 2.012113733229603, 41.557084956210076 ], [ 2.015043474284217, 41.557627966604521 ], [ 2.015063649721006, 41.557632634007739 ], [ 2.017706873062648, 41.55811912775021 ], [ 2.019964416600138, 41.55729620904409 ], [ 2.02012875290736, 41.557257057500166 ], [ 2.021540270703264, 41.557566326816044 ], [ 2.021688900090784, 41.557599094073602 ], [ 2.022086341618811, 41.558007779455139 ], [ 2.024506915382263, 41.558748912825891 ], [ 2.025304676434395, 41.558931289578723 ], [ 2.026508993871824, 41.558914476036776 ], [ 2.027649102791799, 41.558834049671376 ], [ 2.028048998170548, 41.558805896278535 ], [ 2.029340562016852, 41.558668182877277 ] ] ] ] } },
{ "type": "Feature", "properties": { "id": "0827904", "name": "Terrassa distrito 04", "population": 40633.0, "census_sections": "0827904001; 0827904002; 0827904003; 0827904004; 0827904005; 0827904006; 0827904007; 0827904008; 0827904009; 0827904010; 0827904012; 0827904013; 0827904014; 0827904015; 0827904016; 0827904017; 0827904018; 0827904019; 0827904020; 0827904021; 0827904022; 0827904023; 0827904024; 0827904025; 0827904026", "census_districts": "0827904", "municipalities": "08279", "municipalities_mitma": "08279", "luas_mitma": "GAU Barcelona", "district_ids_in_v1": "0827904" }, "geometry": { "type": "MultiPolygon", "coordinates": [ [ [ [ 2.007655928310246, 41.560753034068277 ], [ 2.007653615610904, 41.560730509932888 ], [ 2.007413905035485, 41.556949963778997 ], [ 2.007482367558584, 41.556860463669643 ], [ 2.007321957823074, 41.556399718491939 ], [ 2.007661046209862, 41.555318012687479 ], [ 2.009189762851034, 41.55062422947956 ], [ 2.010278095058356, 41.549160921025397 ], [ 2.010970928431066, 41.548225612400401 ], [ 2.012067834962711, 41.547131660228949 ], [ 2.014405298811595, 41.544454058816719 ], [ 2.015069731176063, 41.543432935659624 ], [ 2.015600778744917, 41.542383611117742 ], [ 2.01636215086947, 41.541295759510213 ], [ 2.017191874979493, 41.540559776998172 ], [ 2.017918149547175, 41.540097572686328 ], [ 2.018646919777239, 41.539473287687848 ], [ 2.019277672426691, 41.538789645443082 ], [ 2.020065517297218, 41.537472301003525 ], [ 2.020313690574211, 41.536668236160274 ], [ 2.020635375443051, 41.534464233949898 ], [ 2.020800363270631, 41.533934225257937 ], [ 2.021207287800221, 41.533032469943535 ], [ 2.022636538564996, 41.530882872429487 ], [ 2.023107397467975, 41.529661887002355 ], [ 2.023448505825424, 41.528102755690995 ], [ 2.022954512913751, 41.528109477261637 ], [ 2.021680997984207, 41.528365333929827 ], [ 2.020653619800704, 41.52848415140194 ], [ 2.01995967337317, 41.529019528672819 ], [ 2.019846204886341, 41.53001697322054 ], [ 2.019565801117035, 41.530500957799461 ], [ 2.018823109402379, 41.531039578862334 ], [ 2.018171413673186, 41.531281727617397 ], [ 2.017604827058737, 41.531599674358695 ], [ 2.015887190933193, 41.53172638103981 ], [ 2.014852462980382, 41.532065920468064 ], [ 2.014380227756559, 41.532311286618736 ], [ 2.013881818910093, 41.532424967602417 ], [ 2.011359470021422, 41.532781625143073 ], [ 2.010489370894804, 41.532814447561933 ], [ 2.009542563470802, 41.532662418817154 ], [ 2.006704806364899, 41.53253122352077 ], [ 2.005126094552311, 41.532994597773282 ], [ 2.004858043343638, 41.533471577562473 ], [ 2.004304455954989, 41.533741564649723 ], [ 2.003902576392695, 41.534469217641288 ], [ 2.003203271212727, 41.534950165690773 ], [ 2.002225729262328, 41.535395853152018 ], [ 2.001349741133868, 41.536433171700267 ], [ 2.001036324493417, 41.536691662916674 ], [ 2.000820714996393, 41.537315790363813 ], [ 1.999930293547301, 41.538330381422078 ], [ 1.99984324951566, 41.53853228306842 ], [ 1.999824412430806, 41.538977970860586 ], [ 2.000137473959682, 41.539399546009683 ], [ 2.000102016964175, 41.539511831572092 ], [ 1.999117301242428, 41.540471547666144 ], [ 1.998813310762033, 41.541135420295205 ], [ 1.997849065317457, 41.541590896260395 ], [ 1.997200112471062, 41.542182873025062 ], [ 1.996696627066828, 41.542166693391508 ], [ 1.995685260706688, 41.541814361373675 ], [ 1.993961142738644, 41.541626453489819 ], [ 1.992478804637088, 41.542205518646142 ], [ 1.99235326632347, 41.542485402852591 ], [ 1.99168047206915, 41.543036842798429 ], [ 1.991473658841829, 41.543381245664591 ], [ 1.991371337348029, 41.542646288383025 ], [ 1.99075538529763, 41.541434388809634 ], [ 1.990668947187565, 41.540653572059206 ], [ 1.990514736829075, 41.539554240479418 ], [ 1.989981344323919, 41.53868035405808 ], [ 1.989374984686384, 41.537972453862082 ], [ 1.987805261544173, 41.536458995385573 ], [ 1.987429395021942, 41.536330415584878 ], [ 1.987035035848876, 41.536195499822888 ], [ 1.986102623463755, 41.535241515999864 ], [ 1.980719798624242, 41.535313335291519 ], [ 1.978651735878584, 41.533818584448781 ], [ 1.978165324887457, 41.534037766087664 ], [ 1.977398705645722, 41.534197090034418 ], [ 1.97655010387686, 41.534224936103527 ], [ 1.975845301045982, 41.534408577694016 ], [ 1.97498748725388, 41.534472783517174 ], [ 1.97446045594494, 41.534630711623038 ], [ 1.973213090856109, 41.53586423793913 ], [ 1.971951097822993, 41.536594201540368 ], [ 1.971342691968518, 41.537097749801923 ], [ 1.970815775163088, 41.53803895129937 ], [ 1.970759520866133, 41.538554554384206 ], [ 1.970588390371862, 41.538823066487744 ], [ 1.970056441330457, 41.538918160266277 ], [ 1.969394056376539, 41.53887486043557 ], [ 1.968491618637877, 41.538670863156128 ], [ 1.966392808126901, 41.538491645494268 ], [ 1.965170891198508, 41.538652602943309 ], [ 1.964245053657486, 41.539079842270851 ], [ 1.96372706206412, 41.539201317041758 ], [ 1.963197425888838, 41.53917019296761 ], [ 1.962664789316847, 41.539256269858463 ], [ 1.962054521689959, 41.539111600189337 ], [ 1.961597902278757, 41.539095342838515 ], [ 1.960824077485599, 41.539317910250922 ], [ 1.959949949174073, 41.53901358799088 ], [ 1.95913054759555, 41.538950041012875 ], [ 1.9589400300015, 41.539434846178146 ], [ 1.958703174472994, 41.539731835486961 ], [ 1.959196364474078, 41.54002657682932 ], [ 1.959866018094279, 41.539952363302099 ], [ 1.960568521214672, 41.540017270593289 ], [ 1.961059140836858, 41.540296201554789 ], [ 1.961257757234033, 41.540571085118678 ], [ 1.961336040546532, 41.540889286701514 ], [ 1.961753555086562, 41.541207107883203 ], [ 1.962289292518864, 41.541412618010838 ], [ 1.963283013589811, 41.541636423748635 ], [ 1.964229848002414, 41.541662150521375 ], [ 1.964596467515495, 41.541853528932151 ], [ 1.965151870057281, 41.542439314768124 ], [ 1.96534487892583, 41.542516716596282 ], [ 1.966137303251105, 41.542513379830723 ], [ 1.966280904976247, 41.54256671587553 ], [ 1.966679183102662, 41.542963961956133 ], [ 1.967361833080078, 41.543265517172124 ], [ 1.968362596014151, 41.5432912571194 ], [ 1.968854314796895, 41.543377152952779 ], [ 1.969169178857291, 41.543513587376253 ], [ 1.969613967919801, 41.544020768493112 ], [ 1.970296943618586, 41.544491423107395 ], [ 1.970491358085389, 41.54475217837453 ], [ 1.970747820724175, 41.545408060368089 ], [ 1.971196772656433, 41.545267115532553 ], [ 1.971328351457807, 41.545287617059287 ], [ 1.97150879498299, 41.545448926926142 ], [ 1.971792802075906, 41.545967831232169 ], [ 1.972652303061383, 41.546135436238423 ], [ 1.972812212942005, 41.546483440426158 ], [ 1.972661321335806, 41.547326108461938 ], [ 1.973361413247989, 41.547193324556183 ], [ 1.973629264128177, 41.547336548351993 ], [ 1.97378006690889, 41.547689710497473 ], [ 1.974215988875778, 41.548204403218769 ], [ 1.974293328423478, 41.548839457915989 ], [ 1.974486014512057, 41.549159834970922 ], [ 1.974749803158109, 41.549291321725164 ], [ 1.975482751003669, 41.54946201203596 ], [ 1.975799337067311, 41.55011527371866 ], [ 1.976005090511638, 41.550275478199666 ], [ 1.976715770928682, 41.550032636032526 ], [ 1.977127713813136, 41.550177223374554 ], [ 1.977876172704209, 41.551553816654661 ], [ 1.97802879835563, 41.551743860447409 ], [ 1.978457425554697, 41.551960039346589 ], [ 1.978843771990874, 41.552510406076514 ], [ 1.979272040749055, 41.552906494542647 ], [ 1.979980884218984, 41.552728600908175 ], [ 1.980655676070049, 41.552873101453045 ], [ 1.981102033684844, 41.553187595727294 ], [ 1.981765059716447, 41.553416450748983 ], [ 1.982022982813106, 41.553800870762956 ], [ 1.98206208411324, 41.554058346856962 ], [ 1.982952058620153, 41.554416327612515 ], [ 1.983072677361323, 41.554630370180568 ], [ 1.983435724992957, 41.554860902266221 ], [ 1.9847291120847, 41.556550699035789 ], [ 1.98791205100275, 41.561035996005685 ], [ 1.987634980268145, 41.561299308842358 ], [ 1.987202161077531, 41.561953269003254 ], [ 1.98713958513031, 41.562273774393375 ], [ 1.987533148419654, 41.562299436330278 ], [ 1.987499837881006, 41.562374390148285 ], [ 1.989112925665536, 41.562514658978436 ], [ 1.989666324643919, 41.562641131500619 ], [ 1.990710274998831, 41.562943030323616 ], [ 1.992172770547458, 41.56363586084742 ], [ 1.992217012394365, 41.563658792246038 ], [ 1.994577323462454, 41.564868346323728 ], [ 1.996727453005219, 41.565970827826817 ], [ 1.996730669385499, 41.565972503655132 ], [ 1.998867437227599, 41.56705849368722 ], [ 2.000596735424735, 41.567888643404864 ], [ 2.001531471929566, 41.568302066222934 ], [ 2.002677223550192, 41.568694811554622 ], [ 2.003918862249535, 41.569115369985639 ], [ 2.004298467113976, 41.569244763095128 ], [ 2.00533342440037, 41.567794547959302 ], [ 2.007063501955999, 41.565370246563283 ], [ 2.007839394419029, 41.564284672668435 ], [ 2.007944104592141, 41.56374139260884 ], [ 2.007942512023985, 41.563723374666381 ], [ 2.007655928310246, 41.560753034068277 ] ] ] ] } },
{ "type": "Feature", "properties": { "id": "0827905", "name": "Terrassa distrito 05", "population": 46381.0, "census_sections": "0827905001; 0827905002; 0827905003; 0827905004; 0827905005; 0827905006; 0827905007; 0827905008; 0827905009; 0827905010; 0827905011; 0827905012; 0827905013; 0827905014; 0827905015; 0827905016; 0827905017; 0827905018; 0827905019; 0827905020; 0827905021; 0827905022; 0827905023; 0827905024; 0827905025; 0827905026; 0827905027; 0827905028; 0827905029", "census_districts": "0827905", "municipalities": "08279", "municipalities_mitma": "08279", "luas_mitma": "GAU Barcelona", "district_ids_in_v1": "0827905" }, "geometry": { "type": "MultiPolygon", "coordinates": [ [ [ [ 1.983745224658505, 41.570767707460149 ], [ 1.983261077375603, 41.571742737214784 ], [ 1.982788456753212, 41.572189443454612 ], [ 1.982395622131452, 41.572330358477757 ], [ 1.981715759596809, 41.572195113175184 ], [ 1.980920275004621, 41.572224119647224 ], [ 1.980475419686711, 41.572148117163493 ], [ 1.978861854697602, 41.572453578776582 ], [ 1.978051203391442, 41.572946270899521 ], [ 1.976766751585333, 41.573461769579296 ], [ 1.976685167567851, 41.573594969432314 ], [ 1.976045596789366, 41.573878816224649 ], [ 1.976052188888355, 41.57393803285126 ], [ 1.974966249058481, 41.57397755218993 ], [ 1.971904664864579, 41.573332683138325 ], [ 1.971538428876552, 41.573217806960727 ], [ 1.970876150458121, 41.57262945476964 ], [ 1.970153297236082, 41.572564437484345 ], [ 1.969724534347121, 41.572232050918032 ], [ 1.969213049545554, 41.572254212807735 ], [ 1.968323447049976, 41.572682714577802 ], [ 1.967859852919498, 41.572533047900031 ], [ 1.967215339306985, 41.572533436207735 ], [ 1.967076574513319, 41.572635789155797 ], [ 1.967009877689198, 41.572920827175366 ], [ 1.966893947460272, 41.57296255052632 ], [ 1.965972435758846, 41.572816647589967 ], [ 1.965101967793885, 41.573932466228612 ], [ 1.965106761875566, 41.574074480978076 ], [ 1.965330291881389, 41.574399712908985 ], [ 1.965084301272082, 41.574697099039014 ], [ 1.964832954132562, 41.575442027945194 ], [ 1.964379861262137, 41.575668091627392 ], [ 1.963851066936783, 41.575743738321215 ], [ 1.963682587630499, 41.576056119144255 ], [ 1.963338054934227, 41.576144434234536 ], [ 1.962499356038822, 41.576600509372305 ], [ 1.962218849655109, 41.576965906514118 ], [ 1.961874948831986, 41.577102362050155 ], [ 1.961582181926195, 41.578183985255144 ], [ 1.961236416548341, 41.578694424671355 ], [ 1.96091968648264, 41.57898545461812 ], [ 1.961170605297268, 41.579169253943185 ], [ 1.9608885604685, 41.579712654768805 ], [ 1.959551243972159, 41.580724865966666 ], [ 1.958956847232243, 41.581416796750531 ], [ 1.958106596236706, 41.582056760714828 ], [ 1.955331816706191, 41.582933005173182 ], [ 1.954285706218263, 41.5833653250967 ], [ 1.953715639242824, 41.583750118247934 ], [ 1.95217850182766, 41.584347691401653 ], [ 1.951809262488496, 41.584849806586405 ], [ 1.95200205111007, 41.585174594161558 ], [ 1.95278293408885, 41.585663084490413 ], [ 1.953525545720306, 41.585964097097587 ], [ 1.954128390194687, 41.587414589797248 ], [ 1.954488768192882, 41.587579091715433 ], [ 1.954914659091314, 41.587659700860186 ], [ 1.954827203258689, 41.58823970767871 ], [ 1.954479380625578, 41.588551834123066 ], [ 1.954125952283132, 41.589260359613561 ], [ 1.954372032159754, 41.589654840198172 ], [ 1.95474136619582, 41.589935999875166 ], [ 1.954905800909508, 41.590829231244804 ], [ 1.955290033437398, 41.591460852437528 ], [ 1.954706579117053, 41.591828174372466 ], [ 1.954087719819591, 41.591890941153103 ], [ 1.953972636869911, 41.592580133573428 ], [ 1.953526136808897, 41.593013589766457 ], [ 1.952327735663417, 41.593182384751486 ], [ 1.951994147299118, 41.593367866469961 ], [ 1.951333712628711, 41.594296703068849 ], [ 1.950954391016602, 41.594511153603023 ], [ 1.950730800000777, 41.594880949793392 ], [ 1.950238390516183, 41.59502823620506 ], [ 1.949975830152724, 41.595201629489573 ], [ 1.949353287440391, 41.596155851120692 ], [ 1.948961921839486, 41.596370810481986 ], [ 1.948711720674694, 41.596705724456214 ], [ 1.948188635785816, 41.597079424814432 ], [ 1.9473619818186, 41.596935005670559 ], [ 1.946760821887452, 41.596915954373344 ], [ 1.946452443663948, 41.597118325952685 ], [ 1.946687542523607, 41.597369294243194 ], [ 1.946479106926585, 41.597936476375139 ], [ 1.945907220962245, 41.598456331562929 ], [ 1.945490109531748, 41.599275590832107 ], [ 1.9447140045328, 41.59994829154585 ], [ 1.944362229251891, 41.600053498654091 ], [ 1.943975520203953, 41.60001616756368 ], [ 1.943945959309012, 41.600258049206801 ], [ 1.944085567304525, 41.600983760592499 ], [ 1.945265660079179, 41.60167113111266 ], [ 1.946762450961566, 41.603047057214837 ], [ 1.947393196065333, 41.603452005276623 ], [ 1.947758355570822, 41.604147496548308 ], [ 1.948703422484468, 41.604583897559067 ], [ 1.94922855232097, 41.604705290491133 ], [ 1.949730584748818, 41.605151776109466 ], [ 1.951683721668821, 41.605436581197061 ], [ 1.952169952437481, 41.605676632502316 ], [ 1.952603813076095, 41.605702935356575 ], [ 1.953437595754472, 41.606252101453158 ], [ 1.954017758337441, 41.607559516492188 ], [ 1.953971639531866, 41.60820973435159 ], [ 1.954703382714086, 41.608835338457332 ], [ 1.955058083027031, 41.609549290431644 ], [ 1.955939722701185, 41.610564539724152 ], [ 1.956312217420385, 41.610728546550412 ], [ 1.956547877679462, 41.611141445482772 ], [ 1.955383606519923, 41.611758982716239 ], [ 1.955814712507119, 41.613468962228332 ], [ 1.955562780693928, 41.614407181182784 ], [ 1.954499774606601, 41.615407461981903 ], [ 1.954302268521421, 41.618306035358955 ], [ 1.954156220517593, 41.618591473207815 ], [ 1.954504313870554, 41.619062580346572 ], [ 1.954093550811625, 41.61949447824442 ], [ 1.954331920444257, 41.619943336026211 ], [ 1.954407323768094, 41.620300218855888 ], [ 1.95392061258661, 41.620681355269596 ], [ 1.95386264793689, 41.620863928782825 ], [ 1.953957820018767, 41.621165951657524 ], [ 1.954767088167732, 41.621392050419011 ], [ 1.955075794662584, 41.624475827878086 ], [ 1.963673928990645, 41.629244667585155 ], [ 1.966360438074006, 41.629848561249652 ], [ 1.966926278828311, 41.630184168740328 ], [ 1.96824776294989, 41.631450380017995 ], [ 1.969412870973543, 41.632399209039384 ], [ 1.970404811370477, 41.633436589474954 ], [ 1.973014214101326, 41.633971627223694 ], [ 1.975007928727485, 41.634614380646255 ], [ 1.97620946493999, 41.635255463462236 ], [ 1.976432519973394, 41.635812966034337 ], [ 1.97644813348655, 41.636793635298268 ], [ 1.975804101784253, 41.63809106216231 ], [ 1.975214223269376, 41.638845920199607 ], [ 1.974097733662416, 41.63930852020998 ], [ 1.973700643834055, 41.640541174675931 ], [ 1.973565984176576, 41.641285276121756 ], [ 1.971722951150982, 41.641977452111206 ], [ 1.9713685280953, 41.642361961053943 ], [ 1.971168479533677, 41.643036838395723 ], [ 1.971128454310964, 41.644542118958285 ], [ 1.972152146844381, 41.645677098027633 ], [ 1.972292335414809, 41.64609416069495 ], [ 1.972193227780288, 41.647611002086649 ], [ 1.971901677641229, 41.648812100227211 ], [ 1.981082780296846, 41.648323441271167 ], [ 1.982809266253406, 41.648302413973475 ], [ 1.982264428162457, 41.641090199606595 ], [ 1.979684953549571, 41.623373160950393 ], [ 1.982444468608534, 41.621343742335988 ], [ 1.982925496279912, 41.620735756688816 ], [ 1.983882753389588, 41.620085496227986 ], [ 1.984467967269701, 41.618959965827635 ], [ 1.98574778889113, 41.618139088550926 ], [ 1.986175638718578, 41.617463370142097 ], [ 1.987388765322097, 41.617005681055481 ], [ 1.989613602156645, 41.617232397761676 ], [ 1.989516129304187, 41.615812955618864 ], [ 1.993631615657779, 41.613034317063288 ], [ 1.996488989770222, 41.61181942142229 ], [ 1.998582946138958, 41.609423921014958 ], [ 1.999306157624239, 41.609309893620896 ], [ 2.001922168859396, 41.607774419656238 ], [ 2.00772593161521, 41.605271129598506 ], [ 2.010309910518339, 41.60502318015854 ], [ 2.021218868602729, 41.600059500890644 ], [ 2.02077892990219, 41.598993123662872 ], [ 2.020369593874187, 41.597562454539919 ], [ 2.019975243397332, 41.595142398631246 ], [ 2.019981287107364, 41.594742838775744 ], [ 2.022804777781222, 41.594100833634428 ], [ 2.022969491728629, 41.594276433347538 ], [ 2.022616230034127, 41.593414420933215 ], [ 2.022611153367814, 41.592042554216661 ], [ 2.022763773672364, 41.590740007902099 ], [ 2.026327922531953, 41.584581863595574 ], [ 2.023651034163806, 41.584434429611832 ], [ 2.020472852349778, 41.584344372492474 ], [ 2.020453634912974, 41.584254106824552 ], [ 2.018522211612937, 41.584174595150209 ], [ 2.018120225863827, 41.581185350977236 ], [ 2.01798429475541, 41.58021142703705 ], [ 2.017735134610784, 41.578597007368941 ], [ 2.017580094779532, 41.577595910695059 ], [ 2.017465685910838, 41.576854815123674 ], [ 2.017314994938285, 41.575521983690699 ], [ 2.017398951569159, 41.57532455899117 ], [ 2.017507326210833, 41.575199377253931 ], [ 2.018435589357088, 41.574396694649039 ], [ 2.019160222727243, 41.573799365626201 ], [ 2.019811078798693, 41.573269017569679 ], [ 2.02064763020965, 41.572590220146544 ], [ 2.024331979631239, 41.570281045458159 ], [ 2.026013884015712, 41.56920093295281 ], [ 2.02626571235487, 41.568779712940696 ], [ 2.022166901444351, 41.569195319381997 ], [ 2.020255009392363, 41.569368207844761 ], [ 2.02008879803962, 41.569378708258661 ], [ 2.018736429223322, 41.569503881966128 ], [ 2.017575427274577, 41.569642606631433 ], [ 2.017069700819715, 41.5697238495476 ], [ 2.016935920739006, 41.569745210640484 ], [ 2.015635926310549, 41.569950286568975 ], [ 2.014976889494786, 41.570057218012465 ], [ 2.012282807355545, 41.570173757743945 ], [ 2.009909564867921, 41.570315474201109 ], [ 2.008864777318357, 41.570262442155503 ], [ 2.007436717123714, 41.570127573295707 ], [ 2.006291361327502, 41.569901485484742 ], [ 2.004298467113976, 41.569244763095128 ], [ 2.003918862249535, 41.569115369985639 ], [ 2.002677223550192, 41.568694811554622 ], [ 2.001531471929566, 41.568302066222934 ], [ 2.000596735424735, 41.567888643404864 ], [ 1.998867437227599, 41.56705849368722 ], [ 1.996730669385499, 41.565972503655132 ], [ 1.996727453005219, 41.565970827826817 ], [ 1.994577323462454, 41.564868346323728 ], [ 1.992217012394365, 41.563658792246038 ], [ 1.992172770547458, 41.56363586084742 ], [ 1.990710274998831, 41.562943030323616 ], [ 1.989666324643919, 41.562641131500619 ], [ 1.989112925665536, 41.562514658978436 ], [ 1.987499837881006, 41.562374390148285 ], [ 1.987533148419654, 41.562299436330278 ], [ 1.98713958513031, 41.562273774393375 ], [ 1.987119180031404, 41.562272964523871 ], [ 1.983745224658505, 41.570767707460149 ] ] ] ] } },
{ "type": "Feature", "properties": { "id": "0827906", "name": "Terrassa distrito 06", "population": 42047.0, "census_sections": "0827906001; 0827906002; 0827906003; 0827906004; 0827906005; 0827906006; 0827906008; 0827906009; 0827906010; 0827906011; 0827906012; 0827906013; 0827906014; 0827906016; 0827906018; 0827906020; 0827906023; 0827906024; 0827906025; 0827906026; 0827906027; 0827906028; 0827906029; 0827906030; 0827906031; 0827906032; 0827906033", "census_districts": "0827906", "municipalities": "08279", "municipalities_mitma": "08279", "luas_mitma": "GAU Barcelona", "district_ids_in_v1": "0827906" }, "geometry": { "type": "MultiPolygon", "coordinates": [ [ [ [ 2.038806919132591, 41.567625545481718 ], [ 2.037611808709338, 41.567731252944974 ], [ 2.033883445994059, 41.568069305903158 ], [ 2.033852666471374, 41.568073551406727 ], [ 2.030260122334889, 41.568399131698364 ], [ 2.028223670836225, 41.568584603857516 ], [ 2.02626571235487, 41.568779712940696 ], [ 2.026013884015712, 41.56920093295281 ], [ 2.024331979631239, 41.570281045458159 ], [ 2.02064763020965, 41.572590220146544 ], [ 2.019811078798693, 41.573269017569679 ], [ 2.019160222727243, 41.573799365626201 ], [ 2.018435589357088, 41.574396694649039 ], [ 2.017507326210833, 41.575199377253931 ], [ 2.017398951569159, 41.57532455899117 ], [ 2.017314994938285, 41.575521983690699 ], [ 2.017465685910838, 41.576854815123674 ], [ 2.017580094779532, 41.577595910695059 ], [ 2.017735134610784, 41.578597007368941 ], [ 2.01798429475541, 41.58021142703705 ], [ 2.018120225863827, 41.581185350977236 ], [ 2.018522211612937, 41.584174595150209 ], [ 2.020453634912974, 41.584254106824552 ], [ 2.020472852349778, 41.584344372492474 ], [ 2.023651034163806, 41.584434429611832 ], [ 2.026327922531953, 41.584581863595574 ], [ 2.022763773672364, 41.590740007902099 ], [ 2.022611153367814, 41.592042554216661 ], [ 2.022616230034127, 41.593414420933215 ], [ 2.022969491728629, 41.594276433347538 ], [ 2.023846549879207, 41.593938414545811 ], [ 2.023894946808309, 41.594091058231825 ], [ 2.026540093979999, 41.593504536182131 ], [ 2.028357345091777, 41.592340089874874 ], [ 2.028728970395849, 41.592914102164592 ], [ 2.030931503971455, 41.594797530074096 ], [ 2.031469183901115, 41.594440503896841 ], [ 2.032383072904997, 41.594353046767004 ], [ 2.034272699966424, 41.595130089067766 ], [ 2.033352273505814, 41.595655175718463 ], [ 2.033322952705234, 41.595921336928988 ], [ 2.033797450312184, 41.596401052168083 ], [ 2.034892896396013, 41.59733493448244 ], [ 2.035992864376832, 41.598075144511803 ], [ 2.03612423567658, 41.598399725637911 ], [ 2.04446858695801, 41.603878330583917 ], [ 2.044682655542757, 41.603561489765539 ], [ 2.049298764071083, 41.601078148758475 ], [ 2.051777103380255, 41.599026085536188 ], [ 2.054757224784015, 41.597867075368967 ], [ 2.055280012872217, 41.597195865623092 ], [ 2.057150036020154, 41.596881709131146 ], [ 2.059170325669719, 41.594953442109869 ], [ 2.059586917009073, 41.59521355118445 ], [ 2.059642840909737, 41.593944043372474 ], [ 2.061026923835622, 41.593413725070192 ], [ 2.060659106320197, 41.593132679189758 ], [ 2.061743946945691, 41.592132608657003 ], [ 2.060656606627429, 41.591259203960391 ], [ 2.061555625419899, 41.590491895507078 ], [ 2.062631332659405, 41.590301104429507 ], [ 2.062428370985946, 41.587707651055482 ], [ 2.059640794557578, 41.587335511492576 ], [ 2.052541739613842, 41.588565732643424 ], [ 2.051011471203042, 41.589544761622548 ], [ 2.048622819399587, 41.588007251945385 ], [ 2.047250587974466, 41.587123675679123 ], [ 2.04859679323174, 41.586111742574182 ], [ 2.047862762955692, 41.5856044587753 ], [ 2.048587899014321, 41.584618190721571 ], [ 2.04956658090512, 41.584710139123445 ], [ 2.049763243219009, 41.584315286534661 ], [ 2.050566056733072, 41.583377560140697 ], [ 2.052579127566478, 41.581218161360169 ], [ 2.054620889178217, 41.581563120712886 ], [ 2.062992592287937, 41.579138250680344 ], [ 2.060848737704862, 41.577620351681169 ], [ 2.06617130848462, 41.575487614701288 ], [ 2.064918121964996, 41.572950814584338 ], [ 2.063625567047179, 41.573286426730192 ], [ 2.06255086793545, 41.572278657118972 ], [ 2.061474077651281, 41.570463907418933 ], [ 2.063129215391169, 41.569401092514198 ], [ 2.066170357341079, 41.568133282388025 ], [ 2.064817763094117, 41.566775702271045 ], [ 2.064849799847322, 41.565956733710195 ], [ 2.064374913935432, 41.565191483279875 ], [ 2.044873708083212, 41.566963107974402 ], [ 2.043599457247248, 41.567099628888116 ], [ 2.039099187962119, 41.567590655389175 ], [ 2.038806919132591, 41.567625545481718 ] ] ] ] } },
{ "type": "Feature", "properties": { "id": "0827907", "name": "Terrassa distrito 07", "population": 8926.0, "census_sections": "0827907001; 0827907002; 0827907003; 0827907004", "census_districts": "0827907", "municipalities": "08279", "municipalities_mitma": "08279", "luas_mitma": "GAU Barcelona", "district_ids_in_v1": "0827903_AD" }, "geometry": { "type": "MultiPolygon", "coordinates": [ [ [ [ 2.051841945927027, 41.53150375273286 ], [ 2.051827737476458, 41.531599991234415 ], [ 2.054628842237562, 41.530425073512951 ], [ 2.056929944835613, 41.525522372325725 ], [ 2.057166881079635, 41.524846757673764 ], [ 2.055179303514765, 41.525754830694602 ], [ 2.054251213346127, 41.52541722076981 ], [ 2.053337230032396, 41.525598510244002 ], [ 2.05189082752161, 41.52552120233559 ], [ 2.050944295524019, 41.525155072146788 ], [ 2.050348096786568, 41.525444306260674 ], [ 2.049360038965598, 41.52571648656469 ], [ 2.0487204976074, 41.525775127725829 ], [ 2.046988078186183, 41.525550111270178 ], [ 2.046112800575125, 41.525219394886292 ], [ 2.045170932717643, 41.524603367385645 ], [ 2.044822369473955, 41.52452341359664 ], [ 2.044080179479113, 41.52459893059028 ], [ 2.042947473591937, 41.524055592106009 ], [ 2.042677484417663, 41.524048405401281 ], [ 2.042604590743515, 41.524170713903239 ], [ 2.042916970287537, 41.524559555634077 ], [ 2.042143900965696, 41.524279103748661 ], [ 2.041749137730335, 41.524053481246341 ], [ 2.041054240256006, 41.524329377898866 ], [ 2.040792136308536, 41.524545756652778 ], [ 2.040628401564954, 41.525007933291214 ], [ 2.040826882217006, 41.525358907340745 ], [ 2.039927966329484, 41.526353629038766 ], [ 2.039598909062532, 41.527054130393196 ], [ 2.039575164402246, 41.527360081857893 ], [ 2.039858149007191, 41.527819304866242 ], [ 2.039036331705208, 41.527605289272394 ], [ 2.036770076136821, 41.525610958596971 ], [ 2.036361037056183, 41.526750887664974 ], [ 2.035789998087878, 41.527438182211263 ], [ 2.035041159949112, 41.527347186368985 ], [ 2.03362874088822, 41.527895124400438 ], [ 2.033369756529773, 41.528111349629008 ], [ 2.033130971783486, 41.528098006739967 ], [ 2.032481371503124, 41.525449026267879 ], [ 2.032666953456767, 41.525226495515163 ], [ 2.032577095449137, 41.525089893455714 ], [ 2.032379413785143, 41.525034249135452 ], [ 2.031891619489204, 41.522263825796763 ], [ 2.032298984089918, 41.522162581226652 ], [ 2.032824421941043, 41.522234813451199 ], [ 2.033299966524675, 41.522154395489885 ], [ 2.034099491978256, 41.521878717911115 ], [ 2.035797583520726, 41.521623143196244 ], [ 2.036995560889659, 41.521172734241347 ], [ 2.036346660654325, 41.520572352269859 ], [ 2.035961630435021, 41.520074099938768 ], [ 2.035967395759566, 41.51973973552797 ], [ 2.035581949291663, 41.519274583225517 ], [ 2.035481689201263, 41.518801683547984 ], [ 2.035549360018876, 41.518283227699456 ], [ 2.03502129031191, 41.517655540337515 ], [ 2.034899280684942, 41.51717249644819 ], [ 2.033033574098741, 41.517747796725608 ], [ 2.032645647151707, 41.518017319573104 ], [ 2.031472649081453, 41.519278883849985 ], [ 2.030676072642662, 41.51991887488969 ], [ 2.030622560668519, 41.520263437084715 ], [ 2.030459569069686, 41.5204938653646 ], [ 2.029921891881389, 41.520778537112491 ], [ 2.029628884313195, 41.521046270110126 ], [ 2.029388021232923, 41.521128293821612 ], [ 2.028500460457728, 41.522787107103788 ], [ 2.028093033338636, 41.523344854909709 ], [ 2.027660019501647, 41.524888380248676 ], [ 2.02722387048394, 41.525313406379574 ], [ 2.026924686969517, 41.526098319950925 ], [ 2.026596419004264, 41.526573880398495 ], [ 2.025487258890101, 41.527781770703889 ], [ 2.024886155850524, 41.527960558413014 ], [ 2.024516365988606, 41.527791972295887 ], [ 2.024383669825954, 41.527812729136961 ], [ 2.030870896610772, 41.531452414322182 ], [ 2.031714753313088, 41.532062989501668 ], [ 2.033393642844506, 41.533653383936695 ], [ 2.034331694998613, 41.533926932279904 ], [ 2.034698826749592, 41.533547228791697 ], [ 2.036774545536984, 41.53508685120169 ], [ 2.037338433405923, 41.535658991796438 ], [ 2.038342722891492, 41.536676190433425 ], [ 2.039265624682998, 41.537877375733771 ], [ 2.039928816618019, 41.539089853428493 ], [ 2.040252021897614, 41.539678034397944 ], [ 2.040666113926312, 41.541041570664916 ], [ 2.040455029107635, 41.542571014245326 ], [ 2.04000535640691, 41.544476802104349 ], [ 2.044045966057506, 41.54339803985998 ], [ 2.045884301203234, 41.543075538284931 ], [ 2.048921713508608, 41.542690898052193 ], [ 2.051746563855601, 41.542466491150819 ], [ 2.05390051006566, 41.542389643288416 ], [ 2.058218514437997, 41.542488114361298 ], [ 2.060682633654868, 41.54262085507176 ], [ 2.066259053850376, 41.543089626274472 ], [ 2.06638071670563, 41.542500794833792 ], [ 2.066033043261082, 41.542029438659668 ], [ 2.065519189579323, 41.54251163453057 ], [ 2.065279795555769, 41.541592939046936 ], [ 2.064407202644431, 41.541471284296684 ], [ 2.064076587327962, 41.540468789093481 ], [ 2.06293652147995, 41.53983390015167 ], [ 2.062573874460158, 41.538966568412839 ], [ 2.062458565930301, 41.539038884389711 ], [ 2.061779468670615, 41.539095503557206 ], [ 2.060937318194393, 41.538901583890905 ], [ 2.060780342260286, 41.538921839376592 ], [ 2.059721523134475, 41.539896981643032 ], [ 2.059675482942699, 41.540021017919123 ], [ 2.059971281637044, 41.5404244545525 ], [ 2.059932409752668, 41.540558852426052 ], [ 2.059621965991537, 41.540613314597856 ], [ 2.058900762204773, 41.54056479523598 ], [ 2.05816001683871, 41.540952090659673 ], [ 2.055560578517264, 41.540947025975811 ], [ 2.05504631409029, 41.540818388810592 ], [ 2.05458507356653, 41.540591772066286 ], [ 2.053740632846873, 41.540555566174042 ], [ 2.052817133025585, 41.538207701864877 ], [ 2.052093830486557, 41.537847859824048 ], [ 2.05185986329333, 41.537410154098943 ], [ 2.051701356048549, 41.537277997742649 ], [ 2.051288912387497, 41.536355867210993 ], [ 2.051813873183361, 41.534810317517696 ], [ 2.051800168311327, 41.534451724572335 ], [ 2.051576866450025, 41.534241754229527 ], [ 2.050784710101408, 41.534056832161021 ], [ 2.049857990677042, 41.533518636712955 ], [ 2.049760577624576, 41.533367451474078 ], [ 2.050036524954061, 41.532331320878114 ], [ 2.050717988831458, 41.531920670829244 ], [ 2.051841945927027, 41.53150375273286 ] ] ] ] } }
]
}
